OBJECT_NAME,OBJECT_ID,EPOCH,MEAN_MOTION,ECCENTRICITY,INCLINATION,RA_OF_ASC_NODE,ARG_OF_PERICENTER,MEAN_ANOMALY,EPHEMERIS_TYPE,CLASSIFICATION_TYPE,NORAD_CAT_ID,ELEMENT_SET_NO,REV_AT_EPOCH,BSTAR,MEAN_MOTION_DOT,MEAN_MOTION_DDOT
STARLINK-37799,2026-119X,2026-06-14T18:54:28.269216,15.80820632,.0001232,97.2819,191.5276,79.8183,280.3224,0,U,69317,999,241,.30056E-3,.57824E-3,0
STARLINK-37802,2026-119Y,2026-06-14T17:20:24.997056,15.80852436,.0001439,97.2821,191.4648,78.0132,282.1298,0,U,69318,999,365,.6507E-3,.126533E-2,0
STARLINK-37803,2026-119Z,2026-06-14T20:00:04.998816,15.70120160,.0003154,97.2842,191.5640,110.7451,115.4756,0,U,69319,999,362,-.27488E-1,-.284091E-1,0
GUOWANG TEST OBJECT A,2026-120A,2026-06-07T11:06:12.288672,15.38803685,.00095994,54.9967,71.5399,294.3963,65.6063,0,U,69320,999,119,.24095813E-3,.9002E-4,0
GUOWANG TEST OBJECT B,2026-120B,2026-06-14T20:45:39.672000,15.38664237,.00098,54.9982,38.1891,323.6417,36.3945,0,U,69321,999,233,.26003E-3,.9702E-4,0
GUOWANG TEST OBJECT C,2026-120C,2026-06-07T21:56:00.773376,15.39284097,.00098504,54.9968,69.4792,309.3319,50.6835,0,U,69322,999,126,.41735581E-3,.16153E-3,0
GUOWANG TEST OBJECT D,2026-120D,2026-06-14T20:40:22.831104,15.38987582,.0011413,54.9974,38.1634,337.8061,22.2472,0,U,69323,999,233,.12904E-3,.4666E-4,0
QIANFAN-163,2026-121A,2026-06-07T22:57:09.243936,13.60351284,.00192,89.0167,301.4498,214.2671,145.7248,0,U,69325,999,90,.25988E-4,.32E-6,0
QIANFAN-164,2026-121B,2026-06-11T09:53:52.001952,13.60355109,.0019383,89.0157,301.0998,205.3125,154.7084,0,U,69326,999,137,.13228E-3,.112E-5,0
SZ-22 MODULE,2025-272C,2026-06-13T18:47:42.089856,15.60088365,.00066118,41.4809,342.8006,57.2068,302.9407,0,U,69328,999,279,.25736494E-3,.21216E-3,0
STARLINK-37733,2026-122A,2026-06-14T20:00:04.998816,15.80808024,.000065,97.2842,195.1390,51.4895,17.1804,0,U,69329,999,297,.12404E-3,.23673E-3,0
STARLINK-37772,2026-122B,2026-06-14T20:00:04.998816,15.80802167,.0001401,97.2838,195.1521,87.1697,11.3386,0,U,69330,999,292,.23426E-3,.44933E-3,0
STARLINK-37768,2026-122C,2026-06-14T20:00:04.998816,15.80820982,.0001133,97.2839,195.1556,91.8719,16.0057,0,U,69331,999,292,.50774E-3,.98237E-3,0
STARLINK-37833,2026-122D,2026-06-14T20:00:04.998816,15.80806494,.0001121,97.2839,195.1576,91.9297,18.8070,0,U,69332,999,292,.14288E-3,.273E-3,0
STARLINK-37818,2026-122E,2026-06-14T20:00:04.998816,15.80776119,.0001338,97.2836,195.1529,97.8841,1.8509,0,U,69333,999,297,.33345E-3,.64083E-3,0
STARLINK-37868,2026-122F,2026-06-14T20:00:04.998816,15.80819167,.0001013,97.2841,195.1698,87.2142,54.7080,0,U,69334,999,297,.41744E-4,.7862E-4,0
STARLINK-37877,2026-122G,2026-06-14T20:00:04.998816,15.80813861,.0000868,97.2839,195.1698,96.9679,45.6703,0,U,69335,999,297,.58114E-4,.11002E-3,0
STARLINK-37791,2026-122H,2026-06-14T20:00:04.998816,15.80749155,.0000671,97.2826,195.1736,49.9530,101.5587,0,U,69336,999,297,.4159E-3,.80009E-3,0
STARLINK-37765,2026-122J,2026-06-14T20:00:04.998816,15.80814312,.0000885,97.2839,195.1755,84.4449,69.1613,0,U,69337,999,302,.11199E-3,.2136E-3,0
STARLINK-37788,2026-122K,2026-06-14T20:00:04.998816,15.80811114,.0001367,97.2836,195.1765,91.3550,66.2211,0,U,69338,999,297,.6254E-4,.11851E-3,0
STARLINK-37743,2026-122L,2026-06-14T20:00:04.998816,15.80838647,.0001415,97.2833,195.1713,92.5307,51.7549,0,U,69339,999,297,-.42639E-3,-.81146E-3,0
STARLINK-37780,2026-122M,2026-06-14T20:00:04.998816,15.80811043,.0001361,97.2837,195.1742,89.8186,59.9789,0,U,69340,999,302,.14611E-3,.27928E-3,0
STARLINK-37781,2026-122N,2026-06-14T20:00:04.998816,15.80820839,.0000956,97.2832,195.1679,97.0665,41.6084,0,U,69341,999,297,.67224E-6,-.13E-6,0
STARLINK-37782,2026-122P,2026-06-14T20:00:04.998816,15.81844294,.0001401,97.2828,195.1940,72.7566,122.5496,0,U,69342,999,297,-.67068E-2,-.1199371E-1,0
STARLINK-37776,2026-122Q,2026-06-14T20:00:04.998816,15.81962843,.0001624,97.2827,195.1953,74.7075,125.8617,0,U,69343,999,297,-.64599E-2,-.1165725E-1,0
STARLINK-37786,2026-122R,2026-06-14T20:00:04.998816,15.82602275,.0001519,97.2831,195.2020,84.8883,128.5428,0,U,69344,999,297,-.10935E-1,-.1978114E-1,0
STARLINK-37785,2026-122S,2026-06-14T20:00:04.998816,15.82480189,.0001376,97.2823,195.2014,85.6565,130.0757,0,U,69345,999,297,-.65424E-2,-.120465E-1,0
STARLINK-37773,2026-122T,2026-06-14T20:00:04.998816,15.81076841,.0001479,97.2838,195.2002,74.7349,136.0683,0,U,69346,999,302,-.23509E-2,-.433994E-2,0
STARLINK-37744,2026-122U,2026-06-14T20:00:04.998816,15.81155157,.0001219,97.2836,195.2033,87.7402,131.6631,0,U,69347,999,297,-.54361E-2,-.949293E-2,0
