STARLINK-37799          
1 69317U 26119X   26165.78782719  .00057824  00000+0  30056-3 0  9996
2 69317  97.2819 191.5276 0001232  79.8183 280.3224 15.80820632  2412
STARLINK-37802          
1 69318U 26119Y   26165.72251154  .00126533  00000+0  65070-3 0  9993
2 69318  97.2821 191.4648 0001439  78.0132 282.1298 15.80852436  3657
STARLINK-37803          
1 69319U 26119Z   26165.83339119 -.02840910  00000+0 -27488-1 0  9999
2 69319  97.2842 191.5640 0003154 110.7451 115.4756 15.70120160  3623
GUOWANG TEST OBJECT A   
1 69320U 26120A   26158.46264223  .00009002  00000+0  24096-3 0  9996
2 69320  54.9967  71.5399 0009599 294.3963  65.6063 15.38803685  1198
GUOWANG TEST OBJECT B   
1 69321U 26120B   26165.86504250  .00009702  00000+0  26003-3 0  9993
2 69321  54.9982  38.1891 0009800 323.6417  36.3945 15.38664237  2336
GUOWANG TEST OBJECT C   
1 69322U 26120C   26158.91389784  .00016153  00000+0  41736-3 0  9993
2 69322  54.9968  69.4792 0009850 309.3319  50.6835 15.39284097  1266
GUOWANG TEST OBJECT D   
1 69323U 26120D   26165.86137536  .00004666  00000+0  12904-3 0  9993
2 69323  54.9974  38.1634 0011413 337.8061  22.2472 15.38987582  2339
QIANFAN-163             
1 69325U 26121A   26158.95635699  .00000032  00000+0  25988-4 0  9991
2 69325  89.0167 301.4498 0019200 214.2671 145.7248 13.60351284   905
QIANFAN-164             
1 69326U 26121B   26162.41240743  .00000112  00000+0  13228-3 0  9992
2 69326  89.0157 301.0998 0019383 205.3125 154.7084 13.60355109  1373
SZ-22 MODULE            
1 69328U 25272C   26164.78312604  .00021216  00000+0  25736-3 0  9993
2 69328  41.4809 342.8006 0006611  57.2068 302.9407 15.60088365  2796
STARLINK-37733          
1 69329U 26122A   26165.83339119  .00023673  00000+0  12404-3 0  9993
2 69329  97.2842 195.1390 0000650  51.4895  17.1804 15.80808024  2979
STARLINK-37772          
1 69330U 26122B   26165.83339119  .00044933  00000+0  23426-3 0  9993
2 69330  97.2838 195.1521 0001401  87.1697  11.3386 15.80802167  2921
STARLINK-37768          
1 69331U 26122C   26165.83339119  .00098237  00000+0  50774-3 0  9996
2 69331  97.2839 195.1556 0001133  91.8719  16.0057 15.80820982  2922
STARLINK-37833          
1 69332U 26122D   26165.83339119  .00027300  00000+0  14288-3 0  9990
2 69332  97.2839 195.1576 0001121  91.9297  18.8070 15.80806494  2921
STARLINK-37818          
1 69333U 26122E   26165.83339119  .00064083  00000+0  33345-3 0  9995
2 69333  97.2836 195.1529 0001338  97.8841   1.8509 15.80776119  2971
STARLINK-37868          
1 69334U 26122F   26165.83339119  .00007862  00000+0  41744-4 0  9991
2 69334  97.2841 195.1698 0001013  87.2142  54.7080 15.80819167  2974
STARLINK-37877          
1 69335U 26122G   26165.83339119  .00011002  00000+0  58114-4 0  9992
2 69335  97.2839 195.1698 0000868  96.9679  45.6703 15.80813861  2977
STARLINK-37791          
1 69336U 26122H   26165.83339119  .00080009  00000+0  41590-3 0  9995
2 69336  97.2826 195.1736 0000671  49.9530 101.5587 15.80749155  2979
STARLINK-37765          
1 69337U 26122J   26165.83339119  .00021360  00000+0  11199-3 0  9993
2 69337  97.2839 195.1755 0000885  84.4449  69.1613 15.80814312  3029
STARLINK-37788          
1 69338U 26122K   26165.83339119  .00011851  00000+0  62540-4 0  9995
2 69338  97.2836 195.1765 0001367  91.3550  66.2211 15.80811114  2976
STARLINK-37743          
1 69339U 26122L   26165.83339119 -.00081146  00000+0 -42639-3 0  9998
2 69339  97.2833 195.1713 0001415  92.5307  51.7549 15.80838647  2977
STARLINK-37780          
1 69340U 26122M   26165.83339119  .00027928  00000+0  14611-3 0  9995
2 69340  97.2837 195.1742 0001361  89.8186  59.9789 15.80811043  3023
STARLINK-37781          
1 69341U 26122N   26165.83339119 -.00000013  00000+0  67224-6 0  9994
2 69341  97.2832 195.1679 0000956  97.0665  41.6084 15.80820839  2972
STARLINK-37782          
1 69342U 26122P   26165.83339119 -.01199371  00000+0 -67068-2 0  9995
2 69342  97.2828 195.1940 0001401  72.7566 122.5496 15.81844294  2973
STARLINK-37776          
1 69343U 26122Q   26165.83339119 -.01165725  00000+0 -64599-2 0  9998
2 69343  97.2827 195.1953 0001624  74.7075 125.8617 15.81962843  2973
STARLINK-37786          
1 69344U 26122R   26165.83339119 -.01978114  00000+0 -10935-1 0  9997
2 69344  97.2831 195.2020 0001519  84.8883 128.5428 15.82602275  2978
STARLINK-37785          
1 69345U 26122S   26165.83339119 -.01204650  00000+0 -65424-2 0  9999
2 69345  97.2823 195.2014 0001376  85.6565 130.0757 15.82480189  2971
STARLINK-37773          
1 69346U 26122T   26165.83339119 -.00433994  00000+0 -23509-2 0  9992
2 69346  97.2838 195.2002 0001479  74.7349 136.0683 15.81076841  3024
STARLINK-37744          
1 69347U 26122U   26165.83339119 -.00949293  00000+0 -54361-2 0  9997
2 69347  97.2836 195.2033 0001219  87.7402 131.6631 15.81155157  2978
